<?xml version="1.0" encoding="utf-8"?>
<gpx version="1.1" creator="DIRK Preview GPX Generator" xmlns="http://www.topografix.com/GPX/1/1">
  <trk>
    <name>Southern Way 1,000</name>
    <trkseg>
      <trkpt lat="-45.033682" lon="168.657651">
        <ele>315.5</ele>
      </trkpt>
      <trkpt lat="-45.116235" lon="168.465774">
        <ele>364.9</ele>
      </trkpt>
      <trkpt lat="-45.186830" lon="168.325569">
        <ele>481.8</ele>
      </trkpt>
      <trkpt lat="-45.321410" lon="168.220793">
        <ele>609.6</ele>
      </trkpt>
      <trkpt lat="-45.413784" lon="168.078313">
        <ele>476.0</ele>
      </trkpt>
      <trkpt lat="-45.564580" lon="168.142335">
        <ele>379.0</ele>
      </trkpt>
      <trkpt lat="-45.672588" lon="168.246185">
        <ele>292.3</ele>
      </trkpt>
      <trkpt lat="-45.679110" lon="168.426381">
        <ele>225.7</ele>
      </trkpt>
      <trkpt lat="-45.543987" lon="168.530684">
        <ele>266.3</ele>
      </trkpt>
      <trkpt lat="-45.469456" lon="168.706014">
        <ele>387.8</ele>
      </trkpt>
      <trkpt lat="-45.394887" lon="168.810821">
        <ele>876.9</ele>
      </trkpt>
      <trkpt lat="-45.249880" lon="168.935627">
        <ele>735.7</ele>
      </trkpt>
      <trkpt lat="-45.161814" lon="169.095793">
        <ele>1164.2</ele>
      </trkpt>
      <trkpt lat="-45.169858" lon="169.221596">
        <ele>672.1</ele>
      </trkpt>
      <trkpt lat="-45.235356" lon="169.365575">
        <ele>146.7</ele>
      </trkpt>
      <trkpt lat="-45.376004" lon="169.313760">
        <ele>137.1</ele>
      </trkpt>
      <trkpt lat="-45.493134" lon="169.318011">
        <ele>118.3</ele>
      </trkpt>
      <trkpt lat="-45.630381" lon="169.378926">
        <ele>76.8</ele>
      </trkpt>
      <trkpt lat="-45.751685" lon="169.503665">
        <ele>67.0</ele>
      </trkpt>
      <trkpt lat="-45.863361" lon="169.618390">
        <ele>140.9</ele>
      </trkpt>
      <trkpt lat="-45.951783" lon="169.741685">
        <ele>149.1</ele>
      </trkpt>
      <trkpt lat="-46.082009" lon="169.839794">
        <ele>62.8</ele>
      </trkpt>
      <trkpt lat="-46.084346" lon="169.999488">
        <ele>32.0</ele>
      </trkpt>
      <trkpt lat="-46.055802" lon="170.169195">
        <ele>185.7</ele>
      </trkpt>
      <trkpt lat="-45.945326" lon="170.336550">
        <ele>17.2</ele>
      </trkpt>
      <trkpt lat="-45.888342" lon="170.522691">
        <ele>16.9</ele>
      </trkpt>
      <trkpt lat="-45.813268" lon="170.617996">
        <ele>100.2</ele>
      </trkpt>
      <trkpt lat="-45.698956" lon="170.603759">
        <ele>82.3</ele>
      </trkpt>
      <trkpt lat="-45.599083" lon="170.599562">
        <ele>112.7</ele>
      </trkpt>
      <trkpt lat="-45.558686" lon="170.452714">
        <ele>605.4</ele>
      </trkpt>
      <trkpt lat="-45.472081" lon="170.311359">
        <ele>400.2</ele>
      </trkpt>
      <trkpt lat="-45.501911" lon="170.126568">
        <ele>206.2</ele>
      </trkpt>
      <trkpt lat="-45.350202" lon="170.236689">
        <ele>298.5</ele>
      </trkpt>
      <trkpt lat="-45.214405" lon="170.263709">
        <ele>333.5</ele>
      </trkpt>
      <trkpt lat="-45.123411" lon="170.092211">
        <ele>436.8</ele>
      </trkpt>
      <trkpt lat="-44.992715" lon="169.964849">
        <ele>582.0</ele>
      </trkpt>
      <trkpt lat="-45.063650" lon="169.746545">
        <ele>428.4</ele>
      </trkpt>
      <trkpt lat="-45.116963" lon="169.538612">
        <ele>339.5</ele>
      </trkpt>
      <trkpt lat="-45.239366" lon="169.423971">
        <ele>158.2</ele>
      </trkpt>
      <trkpt lat="-45.138611" lon="169.313919">
        <ele>216.0</ele>
      </trkpt>
      <trkpt lat="-45.066921" lon="169.192967">
        <ele>206.3</ele>
      </trkpt>
      <trkpt lat="-45.005818" lon="169.066288">
        <ele>241.2</ele>
      </trkpt>
      <trkpt lat="-45.011471" lon="168.930531">
        <ele>327.7</ele>
      </trkpt>
      <trkpt lat="-44.946987" lon="168.802361">
        <ele>417.3</ele>
      </trkpt>
      <trkpt lat="-44.991327" lon="168.725447">
        <ele>336.8</ele>
      </trkpt>
      <trkpt lat="-45.034252" lon="168.662365">
        <ele>320.1</ele>
      </trkpt>
      <trkpt lat="-45.033650" lon="168.657730">
        <ele>315.7</ele>
      </trkpt>
    </trkseg>
  </trk>
</gpx>