<?xml version="1.0" encoding="utf-8"?>
<gpx version="1.1" creator="DIRK Preview GPX Generator" xmlns="http://www.topografix.com/GPX/1/1">
  <trk>
    <name>TA North - TAKEN FROM KENNETT SITE AUG 26</name>
    <trkseg>
      <trkpt lat="-34.426759" lon="172.677518">
        <ele>146.6</ele>
      </trkpt>
      <trkpt lat="-34.527007" lon="172.773940">
        <ele>34.7</ele>
      </trkpt>
      <trkpt lat="-34.662493" lon="172.880186">
        <ele>0.0</ele>
      </trkpt>
      <trkpt lat="-34.807618" lon="173.006008">
        <ele>0.0</ele>
      </trkpt>
      <trkpt lat="-34.957464" lon="173.126431">
        <ele>0.0</ele>
      </trkpt>
      <trkpt lat="-35.128236" lon="173.170547">
        <ele>0.0</ele>
      </trkpt>
      <trkpt lat="-35.265120" lon="173.210819">
        <ele>21.9</ele>
      </trkpt>
      <trkpt lat="-35.260661" lon="173.395026">
        <ele>85.6</ele>
      </trkpt>
      <trkpt lat="-35.352027" lon="173.521969">
        <ele>174.3</ele>
      </trkpt>
      <trkpt lat="-35.456629" lon="173.474588">
        <ele>73.9</ele>
      </trkpt>
      <trkpt lat="-35.558499" lon="173.423750">
        <ele>15.9</ele>
      </trkpt>
      <trkpt lat="-35.634128" lon="173.559443">
        <ele>274.7</ele>
      </trkpt>
      <trkpt lat="-35.726236" lon="173.657598">
        <ele>252.8</ele>
      </trkpt>
      <trkpt lat="-35.841903" lon="173.776223">
        <ele>17.7</ele>
      </trkpt>
      <trkpt lat="-35.972090" lon="173.873733">
        <ele>10.0</ele>
      </trkpt>
      <trkpt lat="-36.123915" lon="173.966381">
        <ele>7.4</ele>
      </trkpt>
      <trkpt lat="-36.228634" lon="174.042864">
        <ele>39.1</ele>
      </trkpt>
      <trkpt lat="-36.335951" lon="174.158344">
        <ele>47.4</ele>
      </trkpt>
      <trkpt lat="-36.462284" lon="174.298351">
        <ele>0.1</ele>
      </trkpt>
      <trkpt lat="-36.609156" lon="174.396591">
        <ele>11.9</ele>
      </trkpt>
      <trkpt lat="-36.743285" lon="174.438460">
        <ele>23.6</ele>
      </trkpt>
      <trkpt lat="-36.820596" lon="174.549322">
        <ele>44.4</ele>
      </trkpt>
      <trkpt lat="-36.869252" lon="174.726160">
        <ele>23.0</ele>
      </trkpt>
      <trkpt lat="-36.957710" lon="174.783441">
        <ele>15.6</ele>
      </trkpt>
      <trkpt lat="-36.999423" lon="174.911411">
        <ele>65.3</ele>
      </trkpt>
      <trkpt lat="-36.977682" lon="175.057385">
        <ele>23.6</ele>
      </trkpt>
      <trkpt lat="-36.987594" lon="175.200453">
        <ele>77.9</ele>
      </trkpt>
      <trkpt lat="-37.085210" lon="175.300504">
        <ele>14.6</ele>
      </trkpt>
      <trkpt lat="-37.229967" lon="175.374663">
        <ele>5.3</ele>
      </trkpt>
      <trkpt lat="-37.197333" lon="175.506662">
        <ele>3.6</ele>
      </trkpt>
      <trkpt lat="-37.255561" lon="175.641532">
        <ele>8.5</ele>
      </trkpt>
      <trkpt lat="-37.410060" lon="175.653334">
        <ele>9.9</ele>
      </trkpt>
      <trkpt lat="-37.560355" lon="175.732034">
        <ele>13.7</ele>
      </trkpt>
      <trkpt lat="-37.674076" lon="175.670496">
        <ele>35.9</ele>
      </trkpt>
      <trkpt lat="-37.790626" lon="175.589239">
        <ele>174.3</ele>
      </trkpt>
      <trkpt lat="-37.870469" lon="175.460284">
        <ele>65.8</ele>
      </trkpt>
      <trkpt lat="-37.970886" lon="175.594988">
        <ele>115.8</ele>
      </trkpt>
      <trkpt lat="-38.099468" lon="175.611758">
        <ele>140.8</ele>
      </trkpt>
      <trkpt lat="-38.234574" lon="175.656839">
        <ele>334.8</ele>
      </trkpt>
      <trkpt lat="-38.341231" lon="175.729254">
        <ele>256.0</ele>
      </trkpt>
      <trkpt lat="-38.419458" lon="175.771283">
        <ele>241.9</ele>
      </trkpt>
      <trkpt lat="-38.533573" lon="175.712217">
        <ele>590.0</ele>
      </trkpt>
      <trkpt lat="-38.528398" lon="175.584769">
        <ele>643.9</ele>
      </trkpt>
      <trkpt lat="-38.596423" lon="175.574343">
        <ele>626.8</ele>
      </trkpt>
      <trkpt lat="-38.672826" lon="175.495108">
        <ele>611.1</ele>
      </trkpt>
      <trkpt lat="-38.690679" lon="175.391766">
        <ele>513.5</ele>
      </trkpt>
      <trkpt lat="-38.742653" lon="175.263643">
        <ele>192.5</ele>
      </trkpt>
      <trkpt lat="-38.883245" lon="175.262974">
        <ele>178.9</ele>
      </trkpt>
      <trkpt lat="-38.973871" lon="175.341617">
        <ele>427.9</ele>
      </trkpt>
      <trkpt lat="-39.051763" lon="175.236805">
        <ele>218.8</ele>
      </trkpt>
      <trkpt lat="-39.119161" lon="175.105814">
        <ele>130.7</ele>
      </trkpt>
      <trkpt lat="-39.211167" lon="175.090725">
        <ele>541.9</ele>
      </trkpt>
      <trkpt lat="-39.259490" lon="174.976045">
        <ele>110.6</ele>
      </trkpt>
      <trkpt lat="-39.374145" lon="175.014410">
        <ele>18.5</ele>
      </trkpt>
      <trkpt lat="-39.495707" lon="175.053921">
        <ele>83.7</ele>
      </trkpt>
      <trkpt lat="-39.605723" lon="175.161876">
        <ele>69.4</ele>
      </trkpt>
      <trkpt lat="-39.729812" lon="175.156741">
        <ele>33.4</ele>
      </trkpt>
      <trkpt lat="-39.854832" lon="175.118823">
        <ele>12.0</ele>
      </trkpt>
      <trkpt lat="-39.942410" lon="175.134145">
        <ele>115.2</ele>
      </trkpt>
      <trkpt lat="-39.906561" lon="175.283656">
        <ele>45.9</ele>
      </trkpt>
      <trkpt lat="-39.912034" lon="175.467917">
        <ele>163.3</ele>
      </trkpt>
      <trkpt lat="-39.932053" lon="175.642492">
        <ele>174.0</ele>
      </trkpt>
      <trkpt lat="-39.884101" lon="175.775626">
        <ele>339.6</ele>
      </trkpt>
      <trkpt lat="-39.893835" lon="175.961532">
        <ele>647.2</ele>
      </trkpt>
      <trkpt lat="-40.002190" lon="175.874542">
        <ele>533.9</ele>
      </trkpt>
      <trkpt lat="-40.127088" lon="175.799953">
        <ele>341.2</ele>
      </trkpt>
      <trkpt lat="-40.241057" lon="175.763396">
        <ele>116.8</ele>
      </trkpt>
      <trkpt lat="-40.329363" lon="175.845697">
        <ele>81.9</ele>
      </trkpt>
      <trkpt lat="-40.445941" lon="175.813648">
        <ele>115.3</ele>
      </trkpt>
      <trkpt lat="-40.575748" lon="175.847333">
        <ele>132.2</ele>
      </trkpt>
      <trkpt lat="-40.657684" lon="175.692645">
        <ele>244.9</ele>
      </trkpt>
      <trkpt lat="-40.779295" lon="175.664952">
        <ele>227.9</ele>
      </trkpt>
      <trkpt lat="-40.948090" lon="175.669659">
        <ele>107.6</ele>
      </trkpt>
      <trkpt lat="-41.108093" lon="175.635393">
        <ele>98.7</ele>
      </trkpt>
      <trkpt lat="-41.242718" lon="175.533038">
        <ele>77.0</ele>
      </trkpt>
      <trkpt lat="-41.158105" lon="175.375881">
        <ele>20.8</ele>
      </trkpt>
      <trkpt lat="-41.165349" lon="175.196256">
        <ele>204.8</ele>
      </trkpt>
      <trkpt lat="-41.104694" lon="175.132131">
        <ele>117.6</ele>
      </trkpt>
      <trkpt lat="-41.165070" lon="174.972923">
        <ele>28.4</ele>
      </trkpt>
      <trkpt lat="-41.244297" lon="174.818885">
        <ele>10.8</ele>
      </trkpt>
      <trkpt lat="-41.267155" lon="174.788538">
        <ele>0.0</ele>
      </trkpt>
    </trkseg>
  </trk>
</gpx>